{"type": "FeatureCollection", "features": [ {"type": "Feature", "properties": {"norad_id": 38755, "name": "SPOT 6", "group": "resource", "lat": -41.07804186044101, "lon": -132.58812849426596, "alt_km": 704.7192703471501, "timestamp": "2025-12-15T20:48:53.542052+00:00", "meta": {"OBJECT_NAME": "SPOT 6", "OBJECT_ID": "2012-047A", "EPOCH": "2025-12-14T22:23:58.562880", "MEAN_MOTION": 14.58606245, "ECCENTRICITY": 0.00011706, "INCLINATION": 98.1571, "RA_OF_ASC_NODE": 53.6775, "ARG_OF_PERICENTER": 98.579, "MEAN_ANOMALY": 261.5542, "EPHEMERIS_TYPE": 0, "CLASSIFICATION_TYPE": "U", "NORAD_CAT_ID": 38755, "ELEMENT_SET_NO": 999, "REV_AT_EPOCH": 70619, "BSTAR": 0.00013495144, "MEAN_MOTION_DOT": 5.83e-06, "MEAN_MOTION_DDOT": 0}, "tle": {"line1": "1 38755U 12047A   25348.93331670  .00000583  00000+0  13495-3 0  9996", "line2": "2 38755  98.1571  53.6775 0001170  98.5790 261.5542 14.58606245706190"}}, "geometry": {"type": "Point", "coordinates": [-132.58812849426596, -41.07804186044101]}}, {"type": "Feature", "properties": {"norad_id": 39019, "name": "PLEIADES 1B", "group": "resource", "lat": 59.44004612542405, "lon": -103.43270385470885, "alt_km": 691.4016613214462, "timestamp": "2025-12-15T20:48:53.542062+00:00", "meta": {"OBJECT_NAME": "PLEIADES 1B", "OBJECT_ID": "2012-068A", "EPOCH": "2025-12-14T22:51:55.199808", "MEAN_MOTION": 14.5855595, "ECCENTRICITY": 0.00012166, "INCLINATION": 98.1791, "RA_OF_ASC_NODE": 61.5692, "ARG_OF_PERICENTER": 83.7613, "MEAN_ANOMALY": 276.3725, "EPHEMERIS_TYPE": 0, "CLASSIFICATION_TYPE": "U", "NORAD_CAT_ID": 39019, "ELEMENT_SET_NO": 999, "REV_AT_EPOCH": 69399, "BSTAR": 0.00013832079, "MEAN_MOTION_DOT": 5.98e-06, "MEAN_MOTION_DDOT": 0}, "tle": {"line1": "1 39019U 12068A   25348.95272222  .00000598  00000+0  13832-3 0  9993", "line2": "2 39019  98.1791  61.5692 0001216  83.7613 276.3725 14.58555950693991"}}, "geometry": {"type": "Point", "coordinates": [-103.43270385470885, 59.44004612542405]}}, {"type": "Feature", "properties": {"norad_id": 39030, "name": "GOKTURK 2", "group": "resource", "lat": 16.803074866634752, "lon": 13.705155398611685, "alt_km": 644.4204700160826, "timestamp": "2025-12-15T20:48:53.542072+00:00", "meta": {"OBJECT_NAME": "GOKTURK 2", "OBJECT_ID": "2012-073A", "EPOCH": "2025-12-14T21:17:23.526240", "MEAN_MOTION": 14.75296767, "ECCENTRICITY": 0.00010572, "INCLINATION": 97.6897, "RA_OF_ASC_NODE": 190.4351, "ARG_OF_PERICENTER": 106.7606, "MEAN_ANOMALY": 253.372, "EPHEMERIS_TYPE": 0, "CLASSIFICATION_TYPE": "U", "NORAD_CAT_ID": 39030, "ELEMENT_SET_NO": 999, "REV_AT_EPOCH": 69733, "BSTAR": 0.00016889743, "MEAN_MOTION_DOT": 1.097e-05, "MEAN_MOTION_DDOT": 0}, "tle": {"line1": "1 39030U 12073A   25348.88707785  .00001097  00000+0  16890-3 0  9993", "line2": "2 39030  97.6897 190.4351 0001057 106.7606 253.3720 14.75296767697339"}}, "geometry": {"type": "Point", "coordinates": [13.705155398611685, 16.803074866634752]}}, {"type": "Feature", "properties": {"norad_id": 39084, "name": "LANDSAT 8", "group": "resource", "lat": -81.14211944537749, "lon": 125.72717509606086, "alt_km": 710.6032966380772, "timestamp": "2025-12-15T20:48:53.542104+00:00", "meta": {"OBJECT_NAME": "LANDSAT 8", "OBJECT_ID": "2013-008A", "EPOCH": "2025-12-14T22:08:21.529824", "MEAN_MOTION": 14.57115993, "ECCENTRICITY": 0.00010794, "INCLINATION": 98.2071, "RA_OF_ASC_NODE": 56.9637, "ARG_OF_PERICENTER": 89.9436, "MEAN_ANOMALY": 270.1886, "EPHEMERIS_TYPE": 0, "CLASSIFICATION_TYPE": "U", "NORAD_CAT_ID": 39084, "ELEMENT_SET_NO": 999, "REV_AT_EPOCH": 67106, "BSTAR": 0.00010719011, "MEAN_MOTION_DOT": 4.38e-06, "MEAN_MOTION_DDOT": 0}, "tle": {"line1": "1 39084U 13008A   25348.92247141  .00000438  00000+0  10719-3 0  9993", "line2": "2 39084  98.2071  56.9637 0001079  89.9436 270.1886 14.57115993671062"}}, "geometry": {"type": "Point", "coordinates": [125.72717509606086, -81.14211944537749]}}, {"type": "Feature", "properties": {"norad_id": 39086, "name": "SARAL", "group": "resource", "lat": -14.738134372752716, "lon": 176.02463782526414, "alt_km": 788.1018479693312, "timestamp": "2025-12-15T20:48:53.542118+00:00", "meta": {"OBJECT_NAME": "SARAL", "OBJECT_ID": "2013-009A", "EPOCH": "2025-12-14T23:05:44.263104", "MEAN_MOTION": 14.32757753, "ECCENTRICITY": 0.00029068, "INCLINATION": 98.5502, "RA_OF_ASC_NODE": 172.8638, "ARG_OF_PERICENTER": 104.5453, "MEAN_ANOMALY": 255.6053, "EPHEMERIS_TYPE": 0, "CLASSIFICATION_TYPE": "U", "NORAD_CAT_ID": 39086, "ELEMENT_SET_NO": 999, "REV_AT_EPOCH": 66922, "BSTAR": 6.3128138e-05, "MEAN_MOTION_DOT": 1.28e-06, "MEAN_MOTION_DDOT": 0}, "tle": {"line1": "1 39086U 13009A   25348.96231786  .00000128  00000+0  63128-4 0  9997", "line2": "2 39086  98.5502 172.8638 0002906 104.5453 255.6053 14.32757753669226"}}, "geometry": {"type": "Point", "coordinates": [176.02463782526414, -14.738134372752716]}}, {"type": "Feature", "properties": {"norad_id": 39150, "name": "GAOFEN-1", "group": "resource", "lat": -73.23784425184478, "lon": -147.10481551935462, "alt_km": 654.3726746982329, "timestamp": "2025-12-15T20:48:53.542128+00:00", "meta": {"OBJECT_NAME": "GAOFEN-1", "OBJECT_ID": "2013-018A", "EPOCH": "2025-12-14T22:31:14.995200", "MEAN_MOTION": 14.76538759, "ECCENTRICITY": 0.00183172, "INCLINATION": 97.9324, "RA_OF_ASC_NODE": 59.5587, "ARG_OF_PERICENTER": 136.1541, "MEAN_ANOMALY": 224.1127, "EPHEMERIS_TYPE": 0, "CLASSIFICATION_TYPE": "U", "NORAD_CAT_ID": 39150, "ELEMENT_SET_NO": 999, "REV_AT_EPOCH": 68105, "BSTAR": 0.00010924937, "MEAN_MOTION_DOT": 7.13e-06, "MEAN_MOTION_DDOT": 0}, "tle": {"line1": "1 39150U 13018A   25348.93836800  .00000713  00000+0  10925-3 0  9990", "line2": "2 39150  97.9324  59.5587 0018317 136.1541 224.1127 14.76538759681058"}}, "geometry": {"type": "Point", "coordinates": [-147.10481551935462, -73.23784425184478]}}, {"type": "Feature", "properties": {"norad_id": 39160, "name": "VNREDSAT 1", "group": "resource", "lat": -6.995634265139851, "lon": -135.9483434258816, "alt_km": 681.4954700902899, "timestamp": "2025-12-15T20:48:53.542139+00:00", "meta": {"OBJECT_NAME": "VNREDSAT 1", "OBJECT_ID": "2013-021B", "EPOCH": "2025-12-14T22:39:12.758688", "MEAN_MOTION": 14.64928231, "ECCENTRICITY": 0.00012756, "INCLINATION": 97.9374, "RA_OF_ASC_NODE": 44.1416, "ARG_OF_PERICENTER": 78.2378, "MEAN_ANOMALY": 281.8969, "EPHEMERIS_TYPE": 0, "CLASSIFICATION_TYPE": "U", "NORAD_CAT_ID": 39160, "ELEMENT_SET_NO": 999, "REV_AT_EPOCH": 67331, "BSTAR": 0.0002138992, "MEAN_MOTION_DOT": 1.099e-05, "MEAN_MOTION_DDOT": 0}, "tle": {"line1": "1 39160U 13021B   25348.94389767  .00001099  00000+0  21390-3 0  9997", "line2": "2 39160  97.9374  44.1416 0001275  78.2378 281.8969 14.64928231673313"}}, "geometry": {"type": "Point", "coordinates": [-135.9483434258816, -6.995634265139851]}}, {"type": "Feature", "properties": {"norad_id": 39227, "name": "ARIRANG-5 (KOMPSAT-5)", "group": "resource", "lat": -9.737412139297389, "lon": 175.44141041026018, "alt_km": 555.8034738140477, "timestamp": "2025-12-15T20:48:53.542149+00:00", "meta": {"OBJECT_NAME": "ARIRANG-5 (KOMPSAT-5)", "OBJECT_ID": "2013-042A", "EPOCH": "2025-12-14T22:30:42.322176", "MEAN_MOTION": 15.04520317, "ECCENTRICITY": 0.00035347, "INCLINATION": 97.6149, "RA_OF_ASC_NODE": 173.2102, "ARG_OF_PERICENTER": 48.8082, "MEAN_ANOMALY": 311.3448, "EPHEMERIS_TYPE": 0, "CLASSIFICATION_TYPE": "U", "NORAD_CAT_ID": 39227, "ELEMENT_SET_NO": 999, "REV_AT_EPOCH": 67615, "BSTAR": 0.00023963838, "MEAN_MOTION_DOT": 3.296e-05, "MEAN_MOTION_DDOT": 0}, "tle": {"line1": "1 39227U 13042A   25348.93798984  .00003296  00000+0  23964-3 0  9998", "line2": "2 39227  97.6149 173.2102 0003534  48.8082 311.3448 15.04520317676159"}}, "geometry": {"type": "Point", "coordinates": [175.44141041026018, -9.737412139297389]}}, {"type": "Feature", "properties": {"norad_id": 39418, "name": "SKYSAT-A", "group": "resource", "lat": 79.85268934414843, "lon": -6.676990489065694, "alt_km": 535.1898200717887, "timestamp": "2025-12-15T20:48:53.542160+00:00", "meta": {"OBJECT_NAME": "SKYSAT-A", "OBJECT_ID": "2013-066C", "EPOCH": "2025-12-14T17:26:22.033824", "MEAN_MOTION": 15.11622039, "ECCENTRICITY": 0.00207688, "INCLINATION": 97.4112, "RA_OF_ASC_NODE": 38.8749, "ARG_OF_PERICENTER": 229.1894, "MEAN_ANOMALY": 130.7536, "EPHEMERIS_TYPE": 0, "CLASSIFICATION_TYPE": "U", "NORAD_CAT_ID": 39418, "ELEMENT_SET_NO": 999, "REV_AT_EPOCH": 66060, "BSTAR": 0.00017933961, "MEAN_MOTION_DOT": 2.998e-05, "MEAN_MOTION_DDOT": 0}, "tle": {"line1": "1 39418U 13066C   25348.72664391  .00002998  00000+0  17934-3 0  9995", "line2": "2 39418  97.4112  38.8749 0020768 229.1894 130.7536 15.11622039660601"}}, "geometry": {"type": "Point", "coordinates": [-6.676990489065694, 79.85268934414843]}}, {"type": "Feature", "properties": {"norad_id": 39419, "name": "DUBAISAT-2", "group": "resource", "lat": -8.83301331324091, "lon": 159.0140257523339, "alt_km": 548.9896633355866, "timestamp": "2025-12-15T20:48:53.542171+00:00", "meta": {"OBJECT_NAME": "DUBAISAT-2", "OBJECT_ID": "2013-066D", "EPOCH": "2025-12-14T23:16:56.520768", "MEAN_MOTION": 15.08388967, "ECCENTRICITY": 0.00102604, "INCLINATION": 97.4455, "RA_OF_ASC_NODE": 339.3088, "ARG_OF_PERICENTER": 313.8016, "MEAN_ANOMALY": 46.2363, "EPHEMERIS_TYPE": 0, "CLASSIFICATION_TYPE": "U", "NORAD_CAT_ID": 39419, "ELEMENT_SET_NO": 999, "REV_AT_EPOCH": 65860, "BSTAR": 0.00036282978, "MEAN_MOTION_DOT": 5.587e-05, "MEAN_MOTION_DDOT": 0}, "tle": {"line1": "1 39419U 13066D   25348.97009862  .00005587  00000+0  36283-3 0  9994", "line2": "2 39419  97.4455 339.3088 0010260 313.8016  46.2363 15.08388967658601"}}, "geometry": {"type": "Point", "coordinates": [159.0140257523339, -8.83301331324091]}}]}